      2.10          N: GNSS NAV DATA                        RINEX VERSION / TYPE
fic2rin                                 06/05/2021 00:17:14 PGM / RUN BY / DATE
                                                            END OF HEADER
31 21  6  4 12  0  0.0-1.211510971189e-04-2.160049916711e-12 0.000000000000e+00
    6.200000000000e+01 6.118750000000e+01 4.598048670040e-09-2.982306740612e+00
    3.138557076454e-06 9.923558682203e-03 9.952113032341e-06 5.153802806854e+03
    4.752000000000e+05-1.210719347000e-07-4.071626513873e-01-6.146728992462e-08
    9.561500303667e-01 1.876875000000e+02 2.647334431191e-01-7.867470568871e-09
    2.407243128482e-10 1.000000000000e+00 2.160000000000e+03 0.000000000000e+00
    2.400000000000e+00 0.000000000000e+00-1.303851604462e-08 6.200000000000e+01
    4.680000000000e+05 4.000000000000e+00
27 21  6  4 12  0  0.0-1.415493898094e-04-6.366462912410e-12 0.000000000000e+00
    5.400000000000e+01-3.715625000000e+01 4.293035965037e-09 3.429857153032e-01
   -1.808628439903e-06 9.445533505641e-03 7.316470146179e-06 5.153685316086e+03
    4.752000000000e+05 3.911554813385e-08 1.661629599371e+00 1.173466444016e-07
    9.756434825300e-01 2.423437500000e+02 6.289417358678e-01-8.147839390215e-09
   -4.675194740627e-10 1.000000000000e+00 2.160000000000e+03 0.000000000000e+00
    2.400000000000e+00 0.000000000000e+00 1.862645149231e-09 5.400000000000e+01
    4.680000000000e+05 4.000000000000e+00
22 21  6  4 12  0  0.0-5.971011705697e-04 9.663381206337e-12 0.000000000000e+00
    5.100000000000e+01-4.062500000000e+00 5.228074913162e-09-6.112002626928e-01
   -1.620501279831e-07 7.054111105390e-03 5.170702934265e-06 5.153812963486e+03
    4.752000000000e+05-2.272427082062e-07-2.626462251884e+00-5.587935447693e-08
    9.351743379020e-01 2.682500000000e+02-9.478293575601e-01-8.551784787591e-09
    2.717970357232e-10 1.000000000000e+00 2.160000000000e+03 0.000000000000e+00
    2.400000000000e+00 0.000000000000e+00-1.769512891769e-08 5.100000000000e+01
    4.680000000000e+05 4.000000000000e+00
19 21  6  4 12  0  0.0 8.935574442148e-06 5.002220859751e-12 0.000000000000e+00
    3.500000000000e+01-4.700000000000e+01 4.083027217330e-09 2.852419089539e+00
   -2.296641469002e-06 9.300844511017e-03 7.240101695061e-06 5.153637979507e+03
    4.752000000000e+05 1.695007085800e-07 1.767599645815e+00 3.166496753693e-08
    9.804043182780e-01 2.490312500000e+02 1.849753511739e+00-7.791753129222e-09
   -3.932306653499e-10 1.000000000000e+00 2.160000000000e+03 0.000000000000e+00
    2.400000000000e+00 0.000000000000e+00-1.536682248116e-08 3.500000000000e+01
    4.680000000000e+05 4.000000000000e+00
13 21  6  4 12  0  0.0 1.405621878803e-04 4.888534022029e-12 0.000000000000e+00
    3.800000000000e+01-3.884375000000e+01 4.374467928434e-09-1.781725072230e-01
   -2.006068825722e-06 4.984574741684e-03 9.045004844666e-06 5.153682497025e+03
    4.752000000000e+05-9.313225746155e-09-1.348035349255e+00 7.264316082001e-08
    9.677529061759e-01 2.124062500000e+02 9.659457268996e-01-7.993904406777e-09
   -1.332198348551e-10 1.000000000000e+00 2.160000000000e+03 0.000000000000e+00
    2.400000000000e+00 0.000000000000e+00-1.117587089539e-08 3.800000000000e+01
    4.680000000000e+05 4.000000000000e+00
24 21  6  4 12  0  0.0 1.154798083007e-04 1.932676241267e-11 0.000000000000e+00
    3.500000000000e+01 4.650000000000e+01 5.073068456521e-09-1.462627302355e+00
    2.380460500717e-06 1.110706955660e-02 9.389594197273e-06 5.153731689453e+03
    4.752000000000e+05 2.253800630569e-07-5.026274538452e-01-6.891787052155e-08
    9.351754087581e-01 1.818125000000e+02 7.406517462038e-01-8.164982961457e-09
    1.971510692762e-10 1.000000000000e+00 2.160000000000e+03 0.000000000000e+00
    2.400000000000e+00 0.000000000000e+00 2.793967723846e-09 3.500000000000e+01
    4.680000000000e+05 4.000000000000e+00
18 21  6  4 12  0  0.0 3.482014872134e-04-1.477928890381e-12 0.000000000000e+00
    3.600000000000e+01 1.228125000000e+01 4.113742782470e-09-1.506515647875e+00
    6.295740604401e-07 1.471086638048e-03 8.806586265564e-06 5.153660886765e+03
    4.752000000000e+05-1.080334186554e-07 2.731048227144e+00 5.587935447693e-08
    9.684224003944e-01 2.150000000000e+02 2.890354694120e+00-7.824611640768e-09
    1.789360248322e-10 1.000000000000e+00 2.160000000000e+03 0.000000000000e+00
    2.400000000000e+00 0.000000000000e+00-8.381903171539e-09 3.600000000000e+01
    4.680000000000e+05 4.000000000000e+00
15 21  6  4 12  0  0.0-1.447238028049e-04 2.614797267597e-12 0.000000000000e+00
    1.010000000000e+02-4.281250000000e+01 5.354508751068e-09-5.194549118964e-01
   -2.026557922363e-06 1.318581693340e-02 7.374212145805e-06 5.153623329163e+03
    4.752000000000e+05-4.097819328308e-08-1.596174789715e+00 1.993030309677e-07
    9.286298787847e-01 2.221250000000e+02 9.872518735404e-01-8.677861467762e-09
   -1.139333172086e-10 1.000000000000e+00 2.160000000000e+03 0.000000000000e+00
    2.400000000000e+00 0.000000000000e+00-1.071020960808e-08 1.010000000000e+02
    4.680000000000e+05 4.000000000000e+00
21 21  6  4 12  0  0.0 1.227799803019e-04 2.501110429876e-12 0.000000000000e+00
    5.500000000000e+01-3.687500000000e+00 4.530903016012e-09 5.344108807925e-01
   -4.991888999939e-07 2.403001487255e-02 9.641051292419e-06 5.153682004929e+03
    4.752000000000e+05-7.450580596924e-08 2.635496963301e+00-3.483146429062e-07
    9.574734533554e-01 2.012187500000e+02-1.130552324134e+00-8.459995249903e-09
    2.071514858337e-11 1.000000000000e+00 2.160000000000e+03 0.000000000000e+00
    2.400000000000e+00 0.000000000000e+00-1.024454832077e-08 5.500000000000e+01
    4.680000000000e+05 4.000000000000e+00
25 21  6  4 12  0  0.0 1.497170887887e-04 6.934897101019e-12 0.000000000000e+00
    1.040000000000e+02 3.912500000000e+01 4.774127432999e-09 2.848298460389e+00
    1.853331923485e-06 9.873499977402e-03 4.163011908531e-06 5.153619077682e+03
    4.752000000000e+05-3.166496753693e-08 6.123790762294e-01-1.937150955200e-07
    9.610605489666e-01 2.965937500000e+02 9.718495961337e-01-8.142482024202e-09
   -3.250135381184e-11 1.000000000000e+00 2.160000000000e+03 0.000000000000e+00
    2.400000000000e+00 0.000000000000e+00 5.587935447693e-09 1.040000000000e+02
    4.680000000000e+05 4.000000000000e+00
26 21  6  4 12  0  0.0 9.407196193933e-05 4.888534022029e-12 0.000000000000e+00
    6.900000000000e+01 4.081250000000e+01 5.396653363703e-09 2.156053251472e+00
    2.164393663406e-06 5.883906269446e-03 4.535540938377e-06 5.153566184998e+03
    4.752000000000e+05-2.086162567139e-07 5.701699485413e-01 7.636845111847e-08
    9.420024963337e-01 2.834375000000e+02 3.090071388162e-01-8.557856469072e-09
    4.678766317969e-11 1.000000000000e+00 2.160000000000e+03 0.000000000000e+00
    2.400000000000e+00 0.000000000000e+00 6.984919309616e-09 6.900000000000e+01
    4.680000000000e+05 4.000000000000e+00
20 21  6  4 12  0  0.0 5.215075798333e-04-3.410605131648e-13 0.000000000000e+00
    9.200000000000e+01 1.531250000000e+00 5.069139721445e-09-1.347640570570e+00
    1.788139343262e-07 6.077322992496e-03 5.321577191353e-06 5.151727602005e+03
    4.752000000000e+05-4.842877388000e-08-2.672823019659e+00-1.136213541031e-07
    9.384944085391e-01 2.666562500000e+02 3.036612119083e+00-8.434994208509e-09
    3.185846989029e-10 1.000000000000e+00 2.160000000000e+03 0.000000000000e+00
    2.400000000000e+00 0.000000000000e+00-8.381903171539e-09 9.200000000000e+01
    4.680000000000e+05 4.000000000000e+00
23 21  6  4 12  0  0.0 1.004035584629e-04-3.865352482535e-12 0.000000000000e+00
    4.900000000000e+01-9.000000000000e+00 4.532331646948e-09-2.221381079838e+00
   -3.185123205185e-07 1.239184639417e-03 5.342066287994e-06 5.153649597168e+03
    4.752000000000e+05 1.303851604462e-08-2.553103231478e+00-9.313225746155e-09
    9.644200233022e-01 2.785312500000e+02 2.604414385296e+00-8.146410759278e-09
    2.317953694933e-10 1.000000000000e+00 2.160000000000e+03 0.000000000000e+00
    2.400000000000e+00 0.000000000000e+00-8.381903171539e-09 3.050000000000e+02
    4.680000000000e+05 4.000000000000e+00
14 21  6  4 12  0  0.0 7.529836148024e-05-6.593836587854e-12 0.000000000000e+00
    1.810000000000e+02 4.262500000000e+01 4.968778398136e-09-2.894703671616e+00
    2.274289727211e-06 7.625441066921e-04 4.334375262260e-06 5.153750850677e+03
    4.752000000000e+05-2.980232238770e-08 6.586954151823e-01 2.421438694000e-08
    9.571609316290e-01 2.953750000000e+02 2.768163627686e+00-8.357490980188e-09
    3.285851154604e-11 1.000000000000e+00 2.160000000000e+03 0.000000000000e+00
    2.400000000000e+00 0.000000000000e+00-7.916241884232e-09 6.930000000000e+02
    4.680000000000e+05 4.000000000000e+00
 2 21  6  4 14  0  0.0-6.097452715039e-04-2.955857780762e-12 0.000000000000e+00
    6.700000000000e+01-5.562500000000e+00 4.478757986819e-09-4.973701271079e-01
   -2.421438694000e-07 2.017416886520e-02 9.452924132347e-06 5.153689046860e+03
    4.824000000000e+05-2.272427082062e-07 2.635419089246e+00 8.754432201385e-08
    9.633194612537e-01 2.049375000000e+02-1.514582416620e+00-8.377848971038e-09
    1.660783464012e-10 1.000000000000e+00 2.160000000000e+03 0.000000000000e+00
    2.400000000000e+00 0.000000000000e+00-1.769512891769e-08 6.700000000000e+01
    4.752000000000e+05 4.000000000000e+00
 1 21  6  4 14  0  0.0 6.688218563795e-04-1.170974428533e-11 0.000000000000e+00
    8.700000000000e+01 1.081250000000e+01 3.924449183347e-09-7.769937399938e-01
    5.252659320831e-07 1.096571295056e-02 9.121373295784e-06 5.153683492661e+03
    4.824000000000e+05 8.381903171539e-08 2.719378655436e+00 2.272427082062e-07
    9.847094477296e-01 2.154062500000e+02 8.525888102033e-01-7.899614764949e-09
    8.643217167545e-11 1.000000000000e+00 2.160000000000e+03 0.000000000000e+00
    2.400000000000e+00 0.000000000000e+00 5.122274160385e-09 8.700000000000e+01
    4.752000000000e+05 4.000000000000e+00
